OBJECT_NAME,OBJECT_ID,EPOCH,MEAN_MOTION,ECCENTRICITY,INCLINATION,RA_OF_ASC_NODE,ARG_OF_PERICENTER,MEAN_ANOMALY,EPHEMERIS_TYPE,CLASSIFICATION_TYPE,NORAD_CAT_ID,ELEMENT_SET_NO,REV_AT_EPOCH,BSTAR,MEAN_MOTION_DOT,MEAN_MOTION_DDOT
INNOSAT 3 (RS92S0),2025-155U,2026-06-14T20:23:16.246176,15.43682595,.0006116,97.4482,137.2896,157.0074,203.1449,0,U,64894,999,8060,.74536E-3,.33643E-3,0
KNACKSAT-2,1998-067XZ,2026-06-14T15:50:06.120384,15.59771864,.0009408,51.6308,307.1872,204.1419,155.9134,0,U,67683,999,1988,.55154E-3,.44887E-3,0
