INNOSAT 3 (RS92S0)      
1 64894U 25155U   26165.84949359  .00033643  00000+0  74536-3 0  9996
2 64894  97.4482 137.2896 0006116 157.0074 203.1449 15.43682595 80606
KNACKSAT-2              
1 67683U 98067XZ  26165.65979306  .00044887  00000+0  55154-3 0  9998
2 67683  51.6308 307.1872 0009408 204.1419 155.9134 15.59771864 19882
